[{"OBJECT_NAME":"STARLINK-4067","OBJECT_ID":"2022-053N","EPOCH":"2026-03-09T11:12:07.241472","MEAN_MOTION":15.08830839,"ECCENTRICITY":0.00013368,"INCLINATION":53.2172,"RA_OF_ASC_NODE":155.1239,"ARG_OF_PERICENTER":78.69,"MEAN_ANOMALY":281.4243,"EPHEMERIS_TYPE":0,"CLASSIFICATION_TYPE":"U","NORAD_CAT_ID":52668,"ELEMENT_SET_NO":999,"REV_AT_EPOCH":21101,"BSTAR":0.00011970545,"MEAN_MOTION_DOT":1.617e-5,"MEAN_MOTION_DDOT":0},{"OBJECT_NAME":"YUNYAO-1 46","OBJECT_ID":"2025-059D","EPOCH":"2026-03-09T22:34:36.342624","MEAN_MOTION":15.10325082,"ECCENTRICITY":0.00132847,"INCLINATION":97.6091,"RA_OF_ASC_NODE":250.9055,"ARG_OF_PERICENTER":123.8801,"MEAN_ANOMALY":236.3694,"EPHEMERIS_TYPE":0,"CLASSIFICATION_TYPE":"U","NORAD_CAT_ID":63347,"ELEMENT_SET_NO":999,"REV_AT_EPOCH":5331,"BSTAR":0.0002771923,"MEAN_MOTION_DOT":4.488e-5,"MEAN_MOTION_DDOT":0}]
